[{"OBJECT_NAME":"YAOGAN-30 10C","OBJECT_ID":"2021-055D","EPOCH":"2026-03-09T22:27:53.002368","MEAN_MOTION":15.02142069,"ECCENTRICITY":0.0003131,"INCLINATION":34.9969,"RA_OF_ASC_NODE":36.2181,"ARG_OF_PERICENTER":356.3915,"MEAN_ANOMALY":3.677,"EPHEMERIS_TYPE":0,"CLASSIFICATION_TYPE":"U","NORAD_CAT_ID":48863,"ELEMENT_SET_NO":999,"REV_AT_EPOCH":25795,"BSTAR":0.00033693874,"MEAN_MOTION_DOT":4.496e-5,"MEAN_MOTION_DDOT":0},{"OBJECT_NAME":"FENGYUN 1C DEB","OBJECT_ID":"1999-025AZA","EPOCH":"2026-03-09T00:58:11.092224","MEAN_MOTION":14.92309795,"ECCENTRICITY":0.00550776,"INCLINATION":98.9912,"RA_OF_ASC_NODE":286.2715,"ARG_OF_PERICENTER":182.0101,"MEAN_ANOMALY":178.0901,"EPHEMERIS_TYPE":0,"CLASSIFICATION_TYPE":"U","NORAD_CAT_ID":30912,"ELEMENT_SET_NO":999,"REV_AT_EPOCH":687,"BSTAR":0.0018683847,"MEAN_MOTION_DOT":0.00019628,"MEAN_MOTION_DDOT":0}]
